LANDSAT 9               
1 49260U 21088A   24016.17570063  .00000853  00000+0  19935-3 0  9997
2 49260  98.2071  88.2563 0001094  89.2663 270.8661 14.57114720122412
